{
  "type": "FeatureCollection",
  "features": [
    {
      "type": "Feature",
      "properties": {
        "norad_id": 33886,
        "name": "IRIDIUM 33 DEB",
        "group": "iridium-33-debris",
        "lat": 60.81548359783377,
        "lon": 70.15499015896111,
        "alt_km": 773.7880637693806,
        "timestamp": "2025-12-21T05:44:51.972392+00:00",
        "meta_object_name": "IRIDIUM 33 DEB",
        "meta_object_id": "1997-051BF",
        "meta_epoch": "2025-12-20T16:37:10.552800",
        "meta_mean_motion": 14.36060348,
        "meta_eccentricity": 0.00129968,
        "meta_inclination": 86.3824,
        "meta_ra_of_asc_node": 63.8814,
        "meta_arg_of_pericenter": 213.1254,
        "meta_mean_anomaly": 261.885,
        "meta_ephemeris_type": 0,
        "meta_classification_type": "U",
        "meta_norad_cat_id": 33886,
        "meta_element_set_no": 999,
        "meta_rev_at_epoch": 88166,
        "meta_bstar": 0.00013250943,
        "meta_mean_motion_dot": 4.05e-06,
        "meta_mean_motion_ddot": 0,
        "tle_line1": "1 33886U 97051BF  25354.69248325  .00000405  00000+0  13251-3 0  9991",
        "tle_line2": "2 33886  86.3824  63.8814 0012996 213.1254 261.8850 14.36060348881660"
      },
      "geometry": {
        "type": "Point",
        "coordinates": [
          70.15499015896111,
          60.81548359783377
        ]
      }
    },
    {
      "type": "Feature",
      "properties": {
        "norad_id": 33887,
        "name": "IRIDIUM 33 DEB",
        "group": "iridium-33-debris",
        "lat": 32.914569929485616,
        "lon": 2.127182639023889,
        "alt_km": 769.244483721579,
        "timestamp": "2025-12-21T05:44:51.972403+00:00",
        "meta_object_name": "IRIDIUM 33 DEB",
        "meta_object_id": "1997-051BG",
        "meta_epoch": "2025-12-20T01:28:45.668352",
        "meta_mean_motion": 14.37227129,
        "meta_eccentricity": 0.00051987,
        "meta_inclination": 86.3041,
        "meta_ra_of_asc_node": 0.2367,
        "meta_arg_of_pericenter": 196.9799,
        "meta_mean_anomaly": 225.7634,
        "meta_ephemeris_type": 0,
        "meta_classification_type": "U",
        "meta_norad_cat_id": 33887,
        "meta_element_set_no": 999,
        "meta_rev_at_epoch": 88270,
        "meta_bstar": 0.00010697181,
        "meta_mean_motion_dot": 3.38e-06,
        "meta_mean_motion_ddot": 0,
        "tle_line1": "1 33887U 97051BG  25354.06163968  .00000338  00000+0  10697-3 0  9998",
        "tle_line2": "2 33887  86.3041   0.2367 0005198 196.9799 225.7634 14.37227129882706"
      },
      "geometry": {
        "type": "Point",
        "coordinates": [
          2.127182639023889,
          32.914569929485616
        ]
      }
    },
    {
      "type": "Feature",
      "properties": {
        "norad_id": 33953,
        "name": "IRIDIUM 33 DEB",
        "group": "iridium-33-debris",
        "lat": 82.0145344494019,
        "lon": 76.88431449793461,
        "alt_km": 688.0858949553758,
        "timestamp": "2025-12-21T05:44:51.972413+00:00",
        "meta_object_name": "IRIDIUM 33 DEB",
        "meta_object_id": "1997-051BN",
        "meta_epoch": "2025-12-20T15:12:49.112064",
        "meta_mean_motion": 14.55391351,
        "meta_eccentricity": 0.0017918,
        "meta_inclination": 86.384,
        "meta_ra_of_asc_node": 50.3533,
        "meta_arg_of_pericenter": 78.7274,
        "meta_mean_anomaly": 73.2547,
        "meta_ephemeris_type": 0,
        "meta_classification_type": "U",
        "meta_norad_cat_id": 33953,
        "meta_element_set_no": 999,
        "meta_rev_at_epoch": 88418,
        "meta_bstar": 0.0006589,
        "meta_mean_motion_dot": 2.887e-05,
        "meta_mean_motion_ddot": 0,
        "tle_line1": "1 33953U 97051BN  25354.63390176  .00002887  00000+0  65890-3 0  9994",
        "tle_line2": "2 33953  86.3840  50.3533 0017918  78.7274  73.2547 14.55391351884188"
      },
      "geometry": {
        "type": "Point",
        "coordinates": [
          76.88431449793461,
          82.0145344494019
        ]
      }
    },
    {
      "type": "Feature",
      "properties": {
        "norad_id": 33960,
        "name": "IRIDIUM 33 DEB",
        "group": "iridium-33-debris",
        "lat": 83.76655579578313,
        "lon": -37.638675375742956,
        "alt_km": 600.355240746394,
        "timestamp": "2025-12-21T05:44:51.972427+00:00",
        "meta_object_name": "IRIDIUM 33 DEB",
        "meta_object_id": "1997-051BV",
        "meta_epoch": "2025-12-20T19:54:30.770784",
        "meta_mean_motion": 14.855592,
        "meta_eccentricity": 0.00073702,
        "meta_inclination": 86.2542,
        "meta_ra_of_asc_node": 285.6986,
        "meta_arg_of_pericenter": 47.5357,
        "meta_mean_anomaly": 6.3643,
        "meta_ephemeris_type": 0,
        "meta_classification_type": "U",
        "meta_norad_cat_id": 33960,
        "meta_element_set_no": 999,
        "meta_rev_at_epoch": 88987,
        "meta_bstar": 0.0019147871,
        "meta_mean_motion_dot": 0.00016604,
        "meta_mean_motion_ddot": 0,
        "tle_line1": "1 33960U 97051BV  25354.82952281  .00016604  00000+0  19148-2 0  9990",
        "tle_line2": "2 33960  86.2542 285.6986 0007370  47.5357   6.3643 14.85559200889873"
      },
      "geometry": {
        "type": "Point",
        "coordinates": [
          -37.638675375742956,
          83.76655579578313
        ]
      }
    },
    {
      "type": "Feature",
      "properties": {
        "norad_id": 33966,
        "name": "IRIDIUM 33 DEB",
        "group": "iridium-33-debris",
        "lat": 32.830639817684286,
        "lon": 44.71303079624084,
        "alt_km": 728.6178647399001,
        "timestamp": "2025-12-21T05:44:51.972437+00:00",
        "meta_object_name": "IRIDIUM 33 DEB",
        "meta_object_id": "1997-051CB",
        "meta_epoch": "2025-12-20T09:48:07.873344",
        "meta_mean_motion": 14.49621404,
        "meta_eccentricity": 0.00082754,
        "meta_inclination": 86.3914,
        "meta_ra_of_asc_node": 42.7361,
        "meta_arg_of_pericenter": 163.9635,
        "meta_mean_anomaly": 214.8558,
        "meta_ephemeris_type": 0,
        "meta_classification_type": "U",
        "meta_norad_cat_id": 33966,
        "meta_element_set_no": 999,
        "meta_rev_at_epoch": 88553,
        "meta_bstar": 0.00035675491,
        "meta_mean_motion_dot": 1.39e-05,
        "meta_mean_motion_ddot": 0,
        "tle_line1": "1 33966U 97051CB  25354.40842446  .00001390  00000+0  35675-3 0  9991",
        "tle_line2": "2 33966  86.3914  42.7361 0008275 163.9635 214.8558 14.49621404885535"
      },
      "geometry": {
        "type": "Point",
        "coordinates": [
          44.71303079624084,
          32.830639817684286
        ]
      }
    },
    {
      "type": "Feature",
      "properties": {
        "norad_id": 34071,
        "name": "IRIDIUM 33 DEB",
        "group": "iridium-33-debris",
        "lat": 83.30909928353209,
        "lon": 161.11676434974726,
        "alt_km": 712.9537522278515,
        "timestamp": "2025-12-21T05:44:51.972450+00:00",
        "meta_object_name": "IRIDIUM 33 DEB",
        "meta_object_id": "1997-051CE",
        "meta_epoch": "2025-12-20T07:46:13.736640",
        "meta_mean_motion": 14.49495052,
        "meta_eccentricity": 0.00099424,
        "meta_inclination": 86.3449,
        "meta_ra_of_asc_node": 14.5318,
        "meta_arg_of_pericenter": 87.1409,
        "meta_mean_anomaly": 273.0933,
        "meta_ephemeris_type": 0,
        "meta_classification_type": "U",
        "meta_norad_cat_id": 34071,
        "meta_element_set_no": 999,
        "meta_rev_at_epoch": 88444,
        "meta_bstar": 0.00041457819,
        "meta_mean_motion_dot": 1.609e-05,
        "meta_mean_motion_ddot": 0,
        "tle_line1": "1 34071U 97051CE  25354.32377010  .00001609  00000+0  41458-3 0  9999",
        "tle_line2": "2 34071  86.3449  14.5318 0009942  87.1409 273.0933 14.49495052884444"
      },
      "geometry": {
        "type": "Point",
        "coordinates": [
          161.11676434974726,
          83.30909928353209
        ]
      }
    },
    {
      "type": "Feature",
      "properties": {
        "norad_id": 34077,
        "name": "IRIDIUM 33 DEB",
        "group": "iridium-33-debris",
        "lat": 48.32068063975629,
        "lon": 51.834949203668664,
        "alt_km": 667.8260999991089,
        "timestamp": "2025-12-21T05:44:51.972463+00:00",
        "meta_object_name": "IRIDIUM 33 DEB",
        "meta_object_id": "1997-051CL",
        "meta_epoch": "2025-12-20T15:28:27.275232",
        "meta_mean_motion": 14.64914051,
        "meta_eccentricity": 0.0009286,
        "meta_inclination": 86.3851,
        "meta_ra_of_asc_node": 48.0252,
        "meta_arg_of_pericenter": 14.2051,
        "meta_mean_anomaly": 139.8659,
        "meta_ephemeris_type": 0,
        "meta_classification_type": "U",
        "meta_norad_cat_id": 34077,
        "meta_element_set_no": 999,
        "meta_rev_at_epoch": 88448,
        "meta_bstar": 0.00067746,
        "meta_mean_motion_dot": 3.646e-05,
        "meta_mean_motion_ddot": 0,
        "tle_line1": "1 34077U 97051CL  25354.64476013  .00003646  00000+0  67746-3 0  9994",
        "tle_line2": "2 34077  86.3851  48.0252 0009286  14.2051 139.8659 14.64914051884481"
      },
      "geometry": {
        "type": "Point",
        "coordinates": [
          51.834949203668664,
          48.32068063975629
        ]
      }
    }
  ]
}